{
  "norad_id": 52344,
  "name": "STARLINK-3851",
  "history": [
    {
      "epoch": "2026-03-28T11:03:19.783296Z",
      "apogee_km": 540.6453650751437,
      "perigee_km": 538.8718933516393,
      "latitude_deg": 3.409846554487439e-06,
      "longitude_deg": 123.20930331932274,
      "height_km": 540.6338291151138,
      "semi_major_axis_km": 6917.895629213392,
      "eccentricity": 0.00012818,
      "inclination_deg": 53.2166,
      "raan_deg": 114.9225,
      "arg_perigee_deg": 88.6735,
      "mean_anomaly_deg": 271.4404,
      "mean_motion_rev_day": 15.08835014
    },
    {
      "epoch": "2026-03-29T01:21:47.873376Z",
      "apogee_km": 540.605079001205,
      "perigee_km": 538.885293489704,
      "latitude_deg": -4.371811415874818e-05,
      "longitude_deg": -94.67307448532847,
      "height_km": 540.6300526714272,
      "semi_major_axis_km": 6917.882186245454,
      "eccentricity": 0.0001243,
      "inclination_deg": 53.2165,
      "raan_deg": 112.2448,
      "arg_perigee_deg": 89.2729,
      "mean_anomaly_deg": 270.8405,
      "mean_motion_rev_day": 15.08839412
    },
    {
      "epoch": "2026-03-30T04:23:20.363712Z",
      "apogee_km": 540.5975225918401,
      "perigee_km": 538.8307034175787,
      "latitude_deg": -3.147151488393933e-05,
      "longitude_deg": -146.22264681070598,
      "height_km": 540.5847409260085,
      "semi_major_axis_km": 6917.851113004709,
      "eccentricity": 0.0001277,
      "inclination_deg": 53.2164,
      "raan_deg": 107.1905,
      "arg_perigee_deg": 88.3721,
      "mean_anomaly_deg": 271.7417,
      "mean_motion_rev_day": 15.08849578
    }
  ]
}